ONEWEB-0159             
1 48062U 21025W   25250.87678909  .00000266  00000+0  69287-3 0  9996
2 48062  87.9028  16.2808 0001859 105.5489 254.5845 13.13469769216546
ONEWEB-0164             
1 48063U 21025X   25250.85816850 -.00000009  00000+0 -60741-4 0  9998
2 48063  87.9026  16.2935 0001720  96.3562 263.7763 13.13469575216526
ONEWEB-0167             
1 48064U 21025Y   25250.88609230  .00000251  00000+0  65172-3 0  9993
2 48064  87.9024  16.3221 0001152 121.4357 238.6885 13.13468092216513
ONEWEB-0166             
1 48065U 21025Z   25250.90894918 -.00000380  00000+0 -10764-2 0  9997
2 48065  87.9027  16.2673 0001924 101.1443 258.9902 13.13468585216595
ONEWEB-0151             
1 48066U 21025AA  25250.83446615 -.00000268  00000+0 -76874-3 0  9997
2 48066  87.9029  16.3070 0001584  99.7963 260.3345 13.13470482216521
ONEWEB-0170             
1 48067U 21025AB  25250.91910422 -.00000360  00000+0 -10203-2 0  9995
2 48067  87.9029  16.2965 0001394  85.8569 274.2719 13.13469101216492
ONEWEB-0168             
1 48068U 21025AC  25250.90386686 -.00000160  00000+0 -47411-3 0  9994
2 48068  87.9029  16.2809 0001740 104.5527 255.5795 13.13469993216505
ONEWEB-0173             
1 48069U 21025AD  25250.89540731  .00000309  00000+0  81103-3 0  9995
2 48069  87.9032  16.2899 0001674 113.6259 246.5046 13.13468955216740
